CCSDS_OMM_VERS = 2.0
CREATION_DATE  = 
ORIGINATOR     = 

OBJECT_NAME    = PROGRESS-MS 32
OBJECT_ID      = 2025-204A
CENTER_NAME    = EARTH
REF_FRAME      = TEME
TIME_SYSTEM    = UTC
MEAN_ELEMENT_THEORY = SGP/SGP4

EPOCH          = 2025-11-25T21:35:15.221472
MEAN_MOTION    = 15.49084902
ECCENTRICITY   = .00038342
INCLINATION    = 51.6312
RA_OF_ASC_NODE = 225.8381
ARG_OF_PERICENTER = 168.1565
MEAN_ANOMALY   = 191.9514

EPHEMERIS_TYPE = 0
CLASSIFICATION_TYPE = U
NORAD_CAT_ID   = 65586
ELEMENT_SET_NO = 999
REV_AT_EPOCH   = 27
BSTAR          = .23568474E-3
MEAN_MOTION_DOT = .12595E-3
MEAN_MOTION_DDOT = 0

CCSDS_OMM_VERS = 2.0
CREATION_DATE  = 
ORIGINATOR     = 

OBJECT_NAME    = CYGNUS NG-23
OBJECT_ID      = 2025-208A
CENTER_NAME    = EARTH
REF_FRAME      = TEME
TIME_SYSTEM    = UTC
MEAN_ELEMENT_THEORY = SGP/SGP4

EPOCH          = 2025-11-25T21:35:15.221472
MEAN_MOTION    = 15.49084902
ECCENTRICITY   = .00038342
INCLINATION    = 51.6312
RA_OF_ASC_NODE = 225.8381
ARG_OF_PERICENTER = 168.1565
MEAN_ANOMALY   = 191.9514

EPHEMERIS_TYPE = 0
CLASSIFICATION_TYPE = U
NORAD_CAT_ID   = 65616
ELEMENT_SET_NO = 999
REV_AT_EPOCH   = 22
BSTAR          = .23568474E-3
MEAN_MOTION_DOT = .12595E-3
MEAN_MOTION_DDOT = 0

CCSDS_OMM_VERS = 2.0
CREATION_DATE  = 
ORIGINATOR     = 

OBJECT_NAME    = DRAGONFLY
OBJECT_ID      = 1998-067XH
CENTER_NAME    = EARTH
REF_FRAME      = TEME
TIME_SYSTEM    = UTC
MEAN_ELEMENT_THEORY = SGP/SGP4

EPOCH          = 2025-11-26T02:42:19.812384
MEAN_MOTION    = 15.66234288
ECCENTRICITY   = .0006321
INCLINATION    = 51.6259
RA_OF_ASC_NODE = 220.5120
ARG_OF_PERICENTER = 183.3895
MEAN_ANOMALY   = 176.7059

EPHEMERIS_TYPE = 0
CLASSIFICATION_TYPE = U
NORAD_CAT_ID   = 65729
ELEMENT_SET_NO = 999
REV_AT_EPOCH   = 1055
BSTAR          = .12736E-2
MEAN_MOTION_DOT = .135859E-2
MEAN_MOTION_DDOT = 0

CCSDS_OMM_VERS = 2.0
CREATION_DATE  = 
ORIGINATOR     = 

OBJECT_NAME    = 1998-067XJ
OBJECT_ID      = 1998-067XJ
CENTER_NAME    = EARTH
REF_FRAME      = TEME
TIME_SYSTEM    = UTC
MEAN_ELEMENT_THEORY = SGP/SGP4

EPOCH          = 2025-11-26T02:18:28.515168
MEAN_MOTION    = 15.93800834
ECCENTRICITY   = .0012384
INCLINATION    = 51.6173
RA_OF_ASC_NODE = 216.5994
ARG_OF_PERICENTER = 189.8744
MEAN_ANOMALY   = 170.2022

EPHEMERIS_TYPE = 0
CLASSIFICATION_TYPE = U
NORAD_CAT_ID   = 65730
ELEMENT_SET_NO = 999
REV_AT_EPOCH   = 1060
BSTAR          = .26464E-2
MEAN_MOTION_DOT = .989567E-2
MEAN_MOTION_DDOT = .4437E-3

CCSDS_OMM_VERS = 2.0
CREATION_DATE  = 
ORIGINATOR     = 

OBJECT_NAME    = 1998-067XK
OBJECT_ID      = 1998-067XK
CENTER_NAME    = EARTH
REF_FRAME      = TEME
TIME_SYSTEM    = UTC
MEAN_ELEMENT_THEORY = SGP/SGP4

EPOCH          = 2025-11-26T02:52:03.166176
MEAN_MOTION    = 15.62206517
ECCENTRICITY   = .0006097
INCLINATION    = 51.6289
RA_OF_ASC_NODE = 221.3146
ARG_OF_PERICENTER = 158.2486
MEAN_ANOMALY   = 201.8768

EPHEMERIS_TYPE = 0
CLASSIFICATION_TYPE = U
NORAD_CAT_ID   = 65731
ELEMENT_SET_NO = 999
REV_AT_EPOCH   = 1054
BSTAR          = .96832E-3
MEAN_MOTION_DOT = .87381E-3
MEAN_MOTION_DDOT = 0

CCSDS_OMM_VERS = 2.0
CREATION_DATE  = 
ORIGINATOR     = 

OBJECT_NAME    = YOTSUBA-KULOVER
OBJECT_ID      = 1998-067XN
CENTER_NAME    = EARTH
REF_FRAME      = TEME
TIME_SYSTEM    = UTC
MEAN_ELEMENT_THEORY = SGP/SGP4

EPOCH          = 2025-11-25T23:19:48.442944
MEAN_MOTION    = 15.56822877
ECCENTRICITY   = .00023793
INCLINATION    = 51.6302
RA_OF_ASC_NODE = 224.0758
ARG_OF_PERICENTER = 131.3125
MEAN_ANOMALY   = 228.8072

EPHEMERIS_TYPE = 0
CLASSIFICATION_TYPE = U
NORAD_CAT_ID   = 65941
ELEMENT_SET_NO = 999
REV_AT_EPOCH   = 724
BSTAR          = .89574128E-3
MEAN_MOTION_DOT = .65537E-3
MEAN_MOTION_DDOT = 0

CCSDS_OMM_VERS = 2.0
CREATION_DATE  = 
ORIGINATOR     = 

OBJECT_NAME    = BOTAN
OBJECT_ID      = 1998-067XP
CENTER_NAME    = EARTH
REF_FRAME      = TEME
TIME_SYSTEM    = UTC
MEAN_ELEMENT_THEORY = SGP/SGP4

EPOCH          = 2025-11-26T00:10:08.401152
MEAN_MOTION    = 15.59004902
ECCENTRICITY   = .00046771
INCLINATION    = 51.6292
RA_OF_ASC_NODE = 223.5603
ARG_OF_PERICENTER = 136.1264
MEAN_ANOMALY   = 224.0101

EPHEMERIS_TYPE = 0
CLASSIFICATION_TYPE = U
NORAD_CAT_ID   = 65942
ELEMENT_SET_NO = 999
REV_AT_EPOCH   = 725
BSTAR          = .11945857E-2
MEAN_MOTION_DOT = .95464E-3
MEAN_MOTION_DDOT = 0

CCSDS_OMM_VERS = 2.0
CREATION_DATE  = 
ORIGINATOR     = 

OBJECT_NAME    = E-KAGAKU-1
OBJECT_ID      = 1998-067XQ
CENTER_NAME    = EARTH
REF_FRAME      = TEME
TIME_SYSTEM    = UTC
MEAN_ELEMENT_THEORY = SGP/SGP4

EPOCH          = 2025-11-25T23:19:24.083328
MEAN_MOTION    = 15.56800574
ECCENTRICITY   = .00038939
INCLINATION    = 51.6306
RA_OF_ASC_NODE = 224.0763
ARG_OF_PERICENTER = 117.1755
MEAN_ANOMALY   = 242.9634

EPHEMERIS_TYPE = 0
CLASSIFICATION_TYPE = U
NORAD_CAT_ID   = 65943
ELEMENT_SET_NO = 999
REV_AT_EPOCH   = 724
BSTAR          = .89771175E-3
MEAN_MOTION_DOT = .65639E-3
MEAN_MOTION_DDOT = 0

CCSDS_OMM_VERS = 2.0
CREATION_DATE  = 
ORIGINATOR     = 

OBJECT_NAME    = HTV-X1
OBJECT_ID      = 2025-241A
CENTER_NAME    = EARTH
REF_FRAME      = TEME
TIME_SYSTEM    = UTC
MEAN_ELEMENT_THEORY = SGP/SGP4

EPOCH          = 2025-11-25T21:35:15.221472
MEAN_MOTION    = 15.49084902
ECCENTRICITY   = .00038342
INCLINATION    = 51.6312
RA_OF_ASC_NODE = 225.8381
ARG_OF_PERICENTER = 168.1565
MEAN_ANOMALY   = 191.9514

EPHEMERIS_TYPE = 0
CLASSIFICATION_TYPE = U
NORAD_CAT_ID   = 66174
ELEMENT_SET_NO = 999
REV_AT_EPOCH   = 51
BSTAR          = .23568474E-3
MEAN_MOTION_DOT = .12595E-3
MEAN_MOTION_DDOT = 0

